NORAD_CAT_ID,OBJECT_NAME,OBJECT_TYPE,EPOCH,MEAN_MOTION,ECCENTRICITY,INCLINATION,RA_OF_ASC_NODE,ARG_OF_PERICENTER,MEAN_ANOMALY,BSTAR,MEAN_MOTION_DOT,MEAN_MOTION_DDOT,TLE_LINE0,TLE_LINE1,TLE_LINE2,SEMIMAJOR_AXIS,PERIOD,APOGEE,PERIGEE,DECAYED
53997.0,STARLINK-5130,PAYLOAD,2024-05-08 07:12:28,15.08837132,0.0001355,53.2167,333.8443,93.0649,267.0499,0.00081857,0.00012763,0.0,0 STARLINK-5130,1 53997U 22125AK  24129.30033540  .00012763  00000-0  81857-3 0  9992,2 53997  53.2167 333.8443 0001355  93.0649 267.0499 15.08837132 88395,6917.889,95.438,540.692,538.817,0.0
53997.0,STARLINK-5130,PAYLOAD,2024-05-08 19:55:33,15.08856361,0.0001303,53.2164,331.4649,91.9461,268.1681,0.0011824,0.00018588,0.0,0 STARLINK-5130,1 53997U 22125AK  24129.83025332  .00018588  00000-0  11824-2 0  9997,2 53997  53.2164 331.4649 0001303  91.9461 268.1681 15.08856361 88543,6917.83,95.437,540.597,538.794,0.0
53997.0,STARLINK-5130,PAYLOAD,2024-05-08 23:06:19,15.08863003,0.0001324,53.2164,330.8698,92.6097,267.5047,0.0012647,0.0001991,0.0,0 STARLINK-5130,1 53997U 22125AK  24129.96273136  .00019910  00000-0  12647-2 0  9992,2 53997  53.2164 330.8698 0001324  92.6097 267.5047 15.08863003 88490,6917.81,95.436,540.591,538.759,0.0
53997.0,STARLINK-5130,PAYLOAD,2024-05-09 19:46:20,15.08845733,0.0001109,53.2159,326.9994,94.5652,265.5466,0.0002356,3.464e-05,0.0,0 STARLINK-5130,1 53997U 22125AK  24130.82384973  .00003464  00000-0  23560-3 0  9995,2 53997  53.2159 326.9994 0001109  94.5652 265.5466 15.08845733 88693,6917.863,95.437,540.495,538.961,0.0
53997.0,STARLINK-5130,PAYLOAD,2024-05-09 22:57:07,15.08843734,0.0001226,53.2168,326.4063,100.4623,259.6508,0.00018395,2.641e-05,0.0,0 STARLINK-5130,1 53997U 22125AK  24130.95633127  .00002641  00000-0  18395-3 0  9993,2 53997  53.2168 326.4063 0001226 100.4623 259.6508 15.08843734 88645,6917.869,95.437,540.582,538.886,0.0
53997.0,STARLINK-5130,PAYLOAD,2024-05-10 19:37:08,15.08838638,0.0001013,53.2171,322.5426,85.9656,274.1452,-7.6004e-05,-1.497e-05,0.0,0 STARLINK-5130,1 53997U 22125AK  24131.81745894 -.00001497  00000-0 -76004-4 0  9996,2 53997  53.2171 322.5426 0001013  85.9656 274.1452 15.08838638 88845,6917.885,95.438,540.45,539.049,0.0
53997.0,STARLINK-5130,PAYLOAD,2024-05-11 13:06:18,15.08887516,0.0001252,53.2179,319.2704,90.6698,269.4438,0.00045712,7.004e-05,0.0,0 STARLINK-5130,1 53997U 22125AK  24132.54604465  .00007004  00000-0  45712-3 0  9994,2 53997  53.2179 319.2704 0001252  90.6698 269.4438 15.08887516 88951,6917.735,95.435,540.466,538.734,0.0
53997.0,STARLINK-5130,PAYLOAD,2024-05-11 19:27:57,15.08770137,8.27e-05,53.2164,318.0815,79.3733,280.7352,-0.0010444,-0.00016839,0.0,0 STARLINK-5130,1 53997U 22125AK  24132.81107982 -.00016839  00000-0 -10444-2 0  9997,2 53997  53.2164 318.0815 0000827  79.3733 280.7352 15.08770137 88991,6918.094,95.442,540.531,539.387,0.0
53997.0,STARLINK-5130,PAYLOAD,2024-05-12 05:00:18,15.08736229,9.53e-05,53.2162,316.2954,70.544,289.5655,-0.001316,-0.00021111,0.0,0 STARLINK-5130,1 53997U 22125AK  24133.20855268 -.00021111  00000-0 -13160-2 0  9995,2 53997  53.2162 316.2954 0000953  70.5440 289.5655 15.08736229 89056,6918.198,95.444,540.722,539.403,0.0
53997.0,STARLINK-5130,PAYLOAD,2024-05-12 12:57:13,15.08791846,0.0001233,53.2169,314.8122,66.0037,294.1084,-0.00027958,-4.729e-05,0.0,0 STARLINK-5130,1 53997U 22125AK  24133.53973924 -.00004729  00000-0 -27958-3 0  9998,2 53997  53.2169 314.8122 0001233  66.0037 294.1084 15.08791846 89108,6918.028,95.441,540.746,539.04,0.0
53997.0,STARLINK-5130,PAYLOAD,2024-05-12 19:18:46,15.08800797,0.0001328,53.2178,313.6262,90.6794,269.4351,-9.5682e-05,-1.809e-05,0.0,0 STARLINK-5130,1 53997U 22125AK  24133.80469993 -.00001809  00000-0 -95682-4 0  9990,2 53997  53.2178 313.6262 0001328  90.6794 269.4351 15.08800797 89140,6918.0,95.44,540.784,538.947,0.0
53997.0,STARLINK-5130,PAYLOAD,2024-05-13 04:51:05,15.08811533,0.0001213,53.217,311.8375,79.1645,280.9483,5.0542e-05,5.16e-06,0.0,0 STARLINK-5130,1 53997U 22125AK  24134.20214382  .00000516  00000-0  50542-4 0  9993,2 53997  53.2170 311.8375 0001213  79.1645 280.9483 15.08811533 89208,6917.967,95.439,540.672,538.993,0.0
53997.0,STARLINK-5130,PAYLOAD,2024-05-14 04:41:51,15.0883023,8.71e-05,53.2165,307.3805,264.9108,95.1785,0.0010928,0.00017142,0.0,0 STARLINK-5130,1 53997U 22125AK  24135.19573517  .00017142  00000-0  10928-2 0  9995,2 53997  53.2165 307.3805 0000871 264.9108  95.1785 15.08830230 89359,6917.91,95.438,540.378,539.173,0.0
53997.0,STARLINK-5130,PAYLOAD,2024-05-14 17:24:55,15.08847596,3.49e-05,53.2172,305.0004,30.3116,329.7896,0.00048392,7.424e-05,0.0,0 STARLINK-5130,1 53997U 22125AK  24135.72564108  .00007424  00000-0  48392-3 0  9999,2 53997  53.2172 305.0004 0000349  30.3116 329.7896 15.08847596 89438,6917.857,95.437,539.964,539.481,0.0
53997.0,STARLINK-5130,PAYLOAD,2024-05-15 04:32:34,15.08881996,0.000137,53.2169,302.9157,84.4126,275.7023,0.00048664,7.474e-05,0.0,0 STARLINK-5130,1 53997U 22125AK  24136.18929360  .00007474  00000-0  48664-3 0  9992,2 53997  53.2169 302.9157 0001370  84.4126 275.7023 15.08881996 89507,6917.752,95.435,540.565,538.669,0.0
53997.0,STARLINK-5130,PAYLOAD,2024-05-15 10:54:09,15.08857252,0.0003131,53.2115,301.7256,87.9422,272.1929,-5.4902e-05,-1.163e-05,0.0,0 STARLINK-5130,1 53997U 22125AK  24136.45428193 -.00001163  00000-0 -54902-4 0  9994,2 53997  53.2115 301.7256 0003131  87.9422 272.1929 15.08857252 89547,6917.828,95.436,541.859,537.527,0.0
53997.0,STARLINK-5130,PAYLOAD,2024-05-15 17:15:41,15.08858702,8.27e-05,53.218,300.5361,108.236,251.8722,-0.00013667,-2.463e-05,0.0,0 STARLINK-5130,1 53997U 22125AK  24136.71923524 -.00002463  00000-0 -13667-3 0  9997,2 53997  53.2180 300.5361 0000827 108.2360 251.8722 15.08858702 89513,6917.823,95.436,540.26,539.116,0.0
53997.0,STARLINK-5130,PAYLOAD,2024-05-16 04:23:22,15.08861754,7.73e-05,53.2191,298.4526,135.4201,224.6853,-6.0839e-05,-1.256e-05,0.0,0 STARLINK-5130,1 53997U 22125AK  24137.18290214 -.00001256  00000-0 -60839-4 0  9995,2 53997  53.2191 298.4526 0000773 135.4201 224.6853 15.08861754 89658,6917.814,95.436,540.214,539.144,0.0
53997.0,STARLINK-5130,PAYLOAD,2024-05-16 10:44:55,15.08858358,0.0001767,53.2172,297.266,96.8378,263.2815,-0.0002358,-4.041e-05,0.0,0 STARLINK-5130,1 53997U 22125AK  24137.44786794 -.00004041  00000-0 -23580-3 0  9993,2 53997  53.2172 297.2660 0001767  96.8378 263.2815 15.08858358 89699,6917.824,95.436,540.912,538.467,0.0
53997.0,STARLINK-5130,PAYLOAD,2024-05-16 17:06:26,15.08869003,0.0001754,53.2152,296.0745,105.1877,254.9309,-1.5138e-05,-5.29e-06,0.0,0 STARLINK-5130,1 53997U 22125AK  24137.71281110 -.00000529  00000-0 -15138-4 0  9993,2 53997  53.2152 296.0745 0001754 105.1877 254.9309 15.08869003 89731,6917.792,95.436,540.87,538.443,0.0
53997.0,STARLINK-5130,PAYLOAD,2024-05-17 16:57:15,15.08826559,0.0002309,53.2161,291.6193,290.3032,69.7712,0.00015776,2.223e-05,0.0,0 STARLINK-5130,1 53997U 22125AK  24138.70643332  .00002223  00000-0  15776-3 0  9999,2 53997  53.2161 291.6193 0002309 290.3032  69.7712 15.08826559 89881,6917.921,95.438,541.384,538.189,0.0
53997.0,STARLINK-5130,PAYLOAD,2024-05-18 10:26:29,15.08839789,0.0001593,53.2093,288.347,88.9959,271.1215,0.0001269,1.732e-05,0.0,0 STARLINK-5130,1 53997U 22125AK  24139.43506786  .00001732  00000-0  12690-3 0  9997,2 53997  53.2093 288.3470 0001593  88.9959 271.1215 15.08839789 89997,6917.881,95.438,540.848,538.644,0.0
53997.0,STARLINK-5130,PAYLOAD,2024-05-18 13:37:15,15.08844553,0.000139,53.2143,287.751,89.1164,270.9987,0.00023745,3.494e-05,0.0,0 STARLINK-5130,1 53997U 22125AK  24139.56754606  .00003494  00000-0  23745-3 0  9997,2 53997  53.2143 287.7510 0001390  89.1164 270.9987 15.08844553 89940,6917.866,95.437,540.693,538.77,0.0
53997.0,STARLINK-5130,PAYLOAD,2024-05-18 16:48:02,15.08855641,9.14e-05,53.2148,287.1573,83.0734,277.0362,0.00056491,8.718e-05,0.0,0 STARLINK-5130,1 53997U 22125AK  24139.70002664  .00008718  00000-0  56491-3 0  9991,2 53997  53.2148 287.1573 0000914  83.0734 277.0362 15.08855641 89962,6917.833,95.437,540.33,539.065,0.0
53997.0,STARLINK-5130,PAYLOAD,2024-05-19 13:28:03,15.08814692,0.0001377,53.216,283.2926,106.2076,253.9068,-0.00042441,-7.031e-05,0.0,0 STARLINK-5130,1 53997U 22125AK  24140.56115442 -.00007031  00000-0 -42441-3 0  9995,2 53997  53.2160 283.2926 0001377 106.2076 253.9068 15.08814692 90099,6917.958,95.439,540.775,538.87,0.0
53997.0,STARLINK-5130,PAYLOAD,2024-05-19 19:49:35,15.08820858,0.0001489,53.2158,282.1014,120.6222,239.4917,-0.00047162,-7.782e-05,0.0,0 STARLINK-5130,1 53997U 22125AK  24140.82611074 -.00007782  00000-0 -47162-3 0  9994,2 53997  53.2158 282.1014 0001489 120.6222 239.4917 15.08820858 90205,6917.939,95.439,540.834,538.774,0.0
53997.0,STARLINK-5130,PAYLOAD,2024-05-20 10:08:04,15.08832325,8.78e-05,53.2155,279.4259,97.4319,262.6773,0.0012116,0.00019043,0.0,0 STARLINK-5130,1 53997U 22125AK  24141.42227952  .00019043  00000-0  12116-2 0  9990,2 53997  53.2155 279.4259 0000878  97.4319 262.6773 15.08832325 90290,6917.904,95.438,540.376,539.161,0.0
53997.0,STARLINK-5130,PAYLOAD,2024-05-20 14:54:14,15.08857268,0.0001131,53.2157,278.5336,107.1348,252.9768,0.0019222,0.00030451,0.0,0 STARLINK-5130,1 53997U 22125AK  24141.62099708  .00030451  00000-0  19222-2 0  9999,2 53997  53.2157 278.5336 0001131 107.1348 252.9768 15.08857268 90257,6917.828,95.436,540.475,538.91,0.0
53997.0,STARLINK-5130,PAYLOAD,2024-05-20 18:05:00,15.08867198,0.0001205,53.2159,277.9388,110.432,249.6802,0.0020307,0.00032203,0.0,0 STARLINK-5130,1 53997U 22125AK  24141.75347474  .00032203  00000-0  20307-2 0  9992,2 53997  53.2159 277.9388 0001205 110.4320 249.6802 15.08867198 90343,6917.797,95.436,540.496,538.829,0.0
53997.0,STARLINK-5130,PAYLOAD,2024-05-21 13:09:37,15.08869055,0.0003019,53.2159,274.37,157.1512,202.9615,0.0016101,0.00025451,0.0,0 STARLINK-5130,1 53997U 22125AK  24142.54834685  .00025451  00000-0  16101-2 0  9999,2 53997  53.2159 274.3700 0003019 157.1512 202.9615 15.08869055 90469,6917.792,95.436,541.745,537.568,0.0
